{
	"type": "FeatureCollection",
	"features": [
		{
			"type": "Feature",
			"properties": {
				"id": "PS-WS-01",
				"name": "滨河大道污水提升泵站",
				"type": "泵站",
				"subType": "污水提升泵站",
				"capacity": "3.2 m³/s",
				"power": "180 kW",
				"status": "normal",
				"runtimeHours": 24914,
				"installYear": 2012
			},
			"geometry": {
				"type": "Point",
				"coordinates": [
					116.485,
					39.781
				]
			}
		},
		{
			"type": "Feature",
			"properties": {
				"id": "PS-WS-02",
				"name": "开发区污水处理厂泵站",
				"type": "泵站",
				"subType": "污水处理泵站",
				"capacity": "6.5 m³/s",
				"power": "450 kW",
				"status": "normal",
				"runtimeHours": 32577,
				"installYear": 2021
			},
			"geometry": {
				"type": "Point",
				"coordinates": [
					116.52499999999999,
					39.809000000000005
				]
			}
		},
		{
			"type": "Feature",
			"properties": {
				"id": "PS-YS-01",
				"name": "中山大道雨水泵站",
				"type": "泵站",
				"subType": "雨水泵站",
				"capacity": "5.0 m³/s",
				"power": "280 kW",
				"status": "normal",
				"runtimeHours": 32440,
				"installYear": 2017
			},
			"geometry": {
				"type": "Point",
				"coordinates": [
					116.49499999999999,
					39.803000000000004
				]
			}
		},
		{
			"type": "Feature",
			"properties": {
				"id": "PS-YS-02",
				"name": "学府路雨水泵站",
				"type": "泵站",
				"subType": "雨水泵站",
				"capacity": "4.2 m³/s",
				"power": "220 kW",
				"status": "normal",
				"runtimeHours": 5155,
				"installYear": 2016
			},
			"geometry": {
				"type": "Point",
				"coordinates": [
					116.50999999999999,
					39.809000000000005
				]
			}
		},
		{
			"type": "Feature",
			"properties": {
				"id": "PS-GS-01",
				"name": "人民路供水加压泵站",
				"type": "泵站",
				"subType": "供水加压泵站",
				"capacity": "2.5 m³/s",
				"power": "132 kW",
				"status": "normal",
				"runtimeHours": 9849,
				"installYear": 2013
			},
			"geometry": {
				"type": "Point",
				"coordinates": [
					116.5,
					39.79
				]
			}
		},
		{
			"type": "Feature",
			"properties": {
				"id": "PS-RQ-01",
				"name": "世纪大道燃气调压站",
				"type": "泵站",
				"subType": "燃气调压站",
				"capacity": "2.0 万m³/h",
				"power": "30 kW",
				"status": "normal",
				"runtimeHours": 16071,
				"installYear": 2016
			},
			"geometry": {
				"type": "Point",
				"coordinates": [
					116.505,
					39.787
				]
			}
		}
	]
}